41591,BRISAT,2016,1436.13,3540.0,+,0.02,Active,1,GSO,French Guiana,Indonesia,Commercial,Communications,Ariane,1 41591U 16039A   24023.22479894 -.00000196  00000+0  00000+0 0  9990,2 41591   0.0164  45.3878 0002301 254.4592  53.6359  1.00269311 27828,1.00269311,0.0002301,GEO
41592,ECHOSTAR 18,2016,1436.08,6300.0,+,0.02,Active,1,GSO,French Guiana,USA,Commercial,Communications,Ariane,1 41592U 16039B   24023.09851861 -.00000280  00000+0  00000+0 0  9998,2 41592   0.0181  58.8981 0001615 238.4709 158.6395  1.00272599 27841,1.00272599,0.0001615,GEO
41599,CARTOSAT-2C,2016,94.78,727.0,+,97.41,Active,1,LEO,India,India,Government,Earth Observation,PSLV,1 41599U 16040A   24023.46485389  .00007784  00000+0  37156-3 0  9997,2 41599  97.4085  84.9473 0012626 306.8527  53.1550 15.19260764420754,15.19260764,0.0012626,LEO
41601,SKYSAT-C1,2016,94.07,110.0,+,97.09,Active,1,LEO,India,USA,Commercial,Earth Observation,PSLV,1 41601U 16040C   24023.12534841  .00013789  00000+0  46619-3 0  9998,2 41601  97.0859  90.5291 0006272  80.2662 279.9288 15.30721860423815,15.3072186,0.0006272,LEO
41602,GHGSAT-D,2016,93.01,15.0,+,97.13,Active,1,LEO,India,Canada,Commercial,Earth Observation,PSLV,1 41602U 16040D   24023.06565845  .00038270  00000+0  72592-3 0  9991,2 41602  97.1261  62.4693 0004611 176.1773 183.9514 15.48211751422313,15.48211751,0.0004611,LEO
41603,LAPAN-A3,2016,94.49,115.0,+,97.15,Active,1,LEO,India,Indonesia,Government,Earth Observation,PSLV,1 41603U 16040E   24023.46784894  .00004482  00000+0  18789-3 0  9999,2 41603  97.1516  43.8501 0010437 256.0574 103.9503 15.23945910421029,15.2394591,0.0010437,LEO
41604,BIROS,2016,93.87,130.0,+,97.14,Active,1,LEO,India,Germany,Government,Earth Observation,PSLV,1 41604U 16040F   24023.09708706  .00013906  00000+0  42313-3 0  9998,2 41604  97.1408  56.0578 0008615 202.1389 157.9484 15.34085915421750,15.34085915,0.0008615,LEO
41605,M3MSAT,2016,93.93,85.0,+,97.14,Active,1,LEO,India,Canada,Government,Earth Observation,PSLV,1 41605U 16040G   24023.07402159  .00013235  00000+0  41563-3 0  9991,2 41605  97.1409  53.4421 0008000 221.8934 138.1698 15.33097836421585,15.33097836,0.0008,LEO
41622,MUOS-5,2016,1436.11,6804.0,+,4.23,Active,1,GSO,USA,USA,Military,Communications,Atlas,1 41622U 16041A   24023.51682491 -.00000145  00000+0  00000+0 0  9993,2 41622   4.2258 297.3503 0194242 251.2199  14.8244  1.00270888 28285,1.00270888,0.0194242,GSO
41634,SJ 16-02,2016,96.74,-1.0,+,75.0,Active,1,LEO,PRC,China,Government,Technology Development,Long March,1 41634U 16043A   24023.44292814  .00003483  00000+0  37713-3 0  9998,2 41634  75.0029 130.9153 0008459   1.4642 358.6567 14.88531924410615,14.88531924,0.0008459,LEO
41725,TIANTONG-1 1,2016,1436.11,-1.0,+,2.47,Active,1,GSO,PRC,China,Government,Communications,Long March,1 41725U 16048A   24023.13089108 -.00000318  00000+0  00000+0 0  9990,2 41725   2.4712  24.5066 0008219 308.3073 297.6765  1.00271267 27483,1.00271267,0.0008219,GSO
41727,GAOFEN-3,2016,99.84,1000.0,+,98.41,Active,1,LEO,PRC,China,Government,Earth Observation,Long March,1 41727U 16049A   24023.46397457  .00000204  00000+0  75138-4 0  9990,2 41727  98.4069  33.2646 0001143  64.8251 295.3058 14.42250642392419,14.42250642,0.0001143,LEO
41729,JCSAT-16,2016,1436.13,4500.0,+,0.03,Active,1,GSO,USA,Japan,Commercial,Communications,Falcon,1 41729U 16050A   24023.22479894 -.00000250  00000+0  00000+0 0  9997,2 41729   0.0289  70.5567 0001067 345.4911 290.8839  1.00269459 27289,1.00269459,0.0001067,GEO
41731,QSS (MOZI),2016,93.84,700.0,+,97.32,Active,1,LEO,PRC,China,Government,Space Science,Long March,1 41731U 16051A   24023.46110452  .00010710  00000+0  32174-3 0  9991,2 41731  97.3175 296.3401 0011895  36.8979 323.3081 15.34529161414322,15.34529161,0.0011895,LEO
41744,USA 270,2016,1437.82,500.0,+,1.66,Active,1,GSO,USA,USA,Military,Space Science,Delta,1 41744U 16052A   24016.21021604 -.00000286  00000+0  00000+0 0  9998,2 41744   1.9215  88.5099 0000692  15.1741 181.1743  1.00427115 19270,1.00427115,6.92e-05,GSO
41745,USA 271,2016,1437.58,500.0,+,1.67,Active,1,GSO,USA,USA,Military,Space Science,Delta,1 41745U 16052B   24016.23787913  .00000076  00000+0  00000+0 0  9999,2 41745   1.8949  88.4861 0003489 206.3907 278.4568  1.00200570 19072,1.0020057,0.0003489,GSO
41747,INTELSAT 36 (IS-36),2016,1436.1,3250.0,+,0.01,Active,1,GSO,French Guiana,INTELSAT,Commercial,Communications,Ariane,1 41747U 16053A   24023.19285449 -.00000023  00000+0  00000+0 0  9995,2 41747   0.0097  32.9383 0001276 339.4906 247.4961  1.00271464 27163,1.00271464,0.0001276,GEO
