[{"OBJECT_NAME":"BRISAT","OBJECT_ID":"2016-039A","EPOCH":"2024-01-23T05:23:42.628416","MEAN_MOTION":1.00269311,"ECCENTRICITY":0.0002301,"INCLINATION":0.0164,"RA_OF_ASC_NODE":45.3878,"ARG_OF_PERICENTER":254.4592,"MEAN_ANOMALY":53.6359,"EPHEMERIS_TYPE":0,"CLASSIFICATION_TYPE":"U","NORAD_CAT_ID":41591,"ELEMENT_SET_NO":999,"REV_AT_EPOCH":2782,"BSTAR":0,"MEAN_MOTION_DOT":-1.96e-6,"MEAN_MOTION_DDOT":0},{"OBJECT_NAME":"ECHOSTAR 18","OBJECT_ID":"2016-039B","EPOCH":"2024-01-23T02:21:52.007904","MEAN_MOTION":1.00272599,"ECCENTRICITY":0.0001615,"INCLINATION":0.0181,"RA_OF_ASC_NODE":58.8981,"ARG_OF_PERICENTER":238.4709,"MEAN_ANOMALY":158.6395,"EPHEMERIS_TYPE":0,"CLASSIFICATION_TYPE":"U","NORAD_CAT_ID":41592,"ELEMENT_SET_NO":999,"REV_AT_EPOCH":2784,"BSTAR":0,"MEAN_MOTION_DOT":-2.8e-6,"MEAN_MOTION_DDOT":0},{"OBJECT_NAME":"CARTOSAT-2C","OBJECT_ID":"2016-040A","EPOCH":"2024-01-23T11:09:23.376096","MEAN_MOTION":15.19260764,"ECCENTRICITY":0.0012626,"INCLINATION":97.4085,"RA_OF_ASC_NODE":84.9473,"ARG_OF_PERICENTER":306.8527,"MEAN_ANOMALY":53.155,"EPHEMERIS_TYPE":0,"CLASSIFICATION_TYPE":"U","NORAD_CAT_ID":41599,"ELEMENT_SET_NO":999,"REV_AT_EPOCH":42075,"BSTAR":0.00037156,"MEAN_MOTION_DOT":7.784e-5,"MEAN_MOTION_DDOT":0},{"OBJECT_NAME":"SKYSAT-C1","OBJECT_ID":"2016-040C","EPOCH":"2024-01-23T03:00:30.102624","MEAN_MOTION":15.3072186,"ECCENTRICITY":0.0006272,"INCLINATION":97.0859,"RA_OF_ASC_NODE":90.5291,"ARG_OF_PERICENTER":80.2662,"MEAN_ANOMALY":279.9288,"EPHEMERIS_TYPE":0,"CLASSIFICATION_TYPE":"U","NORAD_CAT_ID":41601,"ELEMENT_SET_NO":999,"REV_AT_EPOCH":42381,"BSTAR":0.00046619,"MEAN_MOTION_DOT":0.00013789,"MEAN_MOTION_DDOT":0},{"OBJECT_NAME":"GHGSAT-D","OBJECT_ID":"2016-040D","EPOCH":"2024-01-23T01:34:32.890080","MEAN_MOTION":15.48211751,"ECCENTRICITY":0.0004611,"INCLINATION":97.1261,"RA_OF_ASC_NODE":62.4693,"ARG_OF_PERICENTER":176.1773,"MEAN_ANOMALY":183.9514,"EPHEMERIS_TYPE":0,"CLASSIFICATION_TYPE":"U","NORAD_CAT_ID":41602,"ELEMENT_SET_NO":999,"REV_AT_EPOCH":42231,"BSTAR":0.00072592,"MEAN_MOTION_DOT":0.0003827,"MEAN_MOTION_DDOT":0},{"OBJECT_NAME":"LAPAN-A3","OBJECT_ID":"2016-040E","EPOCH":"2024-01-23T11:13:42.148416","MEAN_MOTION":15.2394591,"ECCENTRICITY":0.0010437,"INCLINATION":97.1516,"RA_OF_ASC_NODE":43.8501,"ARG_OF_PERICENTER":256.0574,"MEAN_ANOMALY":103.9503,"EPHEMERIS_TYPE":0,"CLASSIFICATION_TYPE":"U","NORAD_CAT_ID":41603,"ELEMENT_SET_NO":999,"REV_AT_EPOCH":42102,"BSTAR":0.00018789,"MEAN_MOTION_DOT":4.482e-5,"MEAN_MOTION_DDOT":0},{"OBJECT_NAME":"BIROS","OBJECT_ID":"2016-040F","EPOCH":"2024-01-23T02:19:48.321984","MEAN_MOTION":15.34085915,"ECCENTRICITY":0.0008615,"INCLINATION":97.1408,"RA_OF_ASC_NODE":56.0578,"ARG_OF_PERICENTER":202.1389,"MEAN_ANOMALY":157.9484,"EPHEMERIS_TYPE":0,"CLASSIFICATION_TYPE":"U","NORAD_CAT_ID":41604,"ELEMENT_SET_NO":999,"REV_AT_EPOCH":42175,"BSTAR":0.00042313,"MEAN_MOTION_DOT":0.00013906,"MEAN_MOTION_DDOT":0},{"OBJECT_NAME":"M3MSAT","OBJECT_ID":"2016-040G","EPOCH":"2024-01-23T01:46:35.465376","MEAN_MOTION":15.33097836,"ECCENTRICITY":0.0008,"INCLINATION":97.1409,"RA_OF_ASC_NODE":53.4421,"ARG_OF_PERICENTER":221.8934,"MEAN_ANOMALY":138.1698,"EPHEMERIS_TYPE":0,"CLASSIFICATION_TYPE":"U","NORAD_CAT_ID":41605,"ELEMENT_SET_NO":999,"REV_AT_EPOCH":42158,"BSTAR":0.00041563,"MEAN_MOTION_DOT":0.00013235,"MEAN_MOTION_DDOT":0},{"OBJECT_NAME":"MUOS-5","OBJECT_ID":"2016-041A","EPOCH":"2024-01-23T12:24:13.672224","MEAN_MOTION":1.00270888,"ECCENTRICITY":0.0194242,"INCLINATION":4.2258,"RA_OF_ASC_NODE":297.3503,"ARG_OF_PERICENTER":251.2199,"MEAN_ANOMALY":14.8244,"EPHEMERIS_TYPE":0,"CLASSIFICATION_TYPE":"U","NORAD_CAT_ID":41622,"ELEMENT_SET_NO":999,"REV_AT_EPOCH":2828,"BSTAR":0,"MEAN_MOTION_DOT":-1.45e-6,"MEAN_MOTION_DDOT":0},{"OBJECT_NAME":"SJ 16-02","OBJECT_ID":"2016-043A","EPOCH":"2024-01-23T10:37:48.991296","MEAN_MOTION":14.88531924,"ECCENTRICITY":0.0008459,"INCLINATION":75.0029,"RA_OF_ASC_NODE":130.9153,"ARG_OF_PERICENTER":1.4642,"MEAN_ANOMALY":358.6567,"EPHEMERIS_TYPE":0,"CLASSIFICATION_TYPE":"U","NORAD_CAT_ID":41634,"ELEMENT_SET_NO":999,"REV_AT_EPOCH":41061,"BSTAR":0.00037713,"MEAN_MOTION_DOT":3.483e-5,"MEAN_MOTION_DDOT":0},{"OBJECT_NAME":"TIANTONG-1 1","OBJECT_ID":"2016-048A","EPOCH":"2024-01-23T03:08:28.989312","MEAN_MOTION":1.00271267,"ECCENTRICITY":0.0008219,"INCLINATION":2.4712,"RA_OF_ASC_NODE":24.5066,"ARG_OF_PERICENTER":308.3073,"MEAN_ANOMALY":297.6765,"EPHEMERIS_TYPE":0,"CLASSIFICATION_TYPE":"U","NORAD_CAT_ID":41725,"ELEMENT_SET_NO":999,"REV_AT_EPOCH":2748,"BSTAR":0,"MEAN_MOTION_DOT":-3.18e-6,"MEAN_MOTION_DDOT":0},{"OBJECT_NAME":"GAOFEN-3","OBJECT_ID":"2016-049A","EPOCH":"2024-01-23T11:08:07.402848","MEAN_MOTION":14.42250642,"ECCENTRICITY":0.0001143,"INCLINATION":98.4069,"RA_OF_ASC_NODE":33.2646,"ARG_OF_PERICENTER":64.8251,"MEAN_ANOMALY":295.3058,"EPHEMERIS_TYPE":0,"CLASSIFICATION_TYPE":"U","NORAD_CAT_ID":41727,"ELEMENT_SET_NO":999,"REV_AT_EPOCH":39241,"BSTAR":7.5138e-5,"MEAN_MOTION_DOT":2.04e-6,"MEAN_MOTION_DDOT":0},{"OBJECT_NAME":"JCSAT-16","OBJECT_ID":"2016-050A","EPOCH":"2024-01-23T05:23:42.628416","MEAN_MOTION":1.00269459,"ECCENTRICITY":0.0001067,"INCLINATION":0.0289,"RA_OF_ASC_NODE":70.5567,"ARG_OF_PERICENTER":345.4911,"MEAN_ANOMALY":290.8839,"EPHEMERIS_TYPE":0,"CLASSIFICATION_TYPE":"U","NORAD_CAT_ID":41729,"ELEMENT_SET_NO":999,"REV_AT_EPOCH":2728,"BSTAR":0,"MEAN_MOTION_DOT":-2.5e-6,"MEAN_MOTION_DDOT":0},{"OBJECT_NAME":"QSS (MOZI)","OBJECT_ID":"2016-051A","EPOCH":"2024-01-23T11:03:59.430528","MEAN_MOTION":15.34529161,"ECCENTRICITY":0.0011895,"INCLINATION":97.3175,"RA_OF_ASC_NODE":296.3401,"ARG_OF_PERICENTER":36.8979,"MEAN_ANOMALY":323.3081,"EPHEMERIS_TYPE":0,"CLASSIFICATION_TYPE":"U","NORAD_CAT_ID":41731,"ELEMENT_SET_NO":999,"REV_AT_EPOCH":41432,"BSTAR":0.00032174,"MEAN_MOTION_DOT":0.0001071,"MEAN_MOTION_DDOT":0},{"OBJECT_NAME":"USA 270","OBJECT_ID":"2016-052A","EPOCH":"2024-01-16T05:02:42.665856","MEAN_MOTION":1.00427115,"ECCENTRICITY":6.92e-5,"INCLINATION":1.9215,"RA_OF_ASC_NODE":88.5099,"ARG_OF_PERICENTER":15.1741,"MEAN_ANOMALY":181.1743,"EPHEMERIS_TYPE":0,"CLASSIFICATION_TYPE":"U","NORAD_CAT_ID":41744,"ELEMENT_SET_NO":999,"REV_AT_EPOCH":1927,"BSTAR":0,"MEAN_MOTION_DOT":-2.86e-6,"MEAN_MOTION_DDOT":0},{"OBJECT_NAME":"USA 271","OBJECT_ID":"2016-052B","EPOCH":"2024-01-16T05:42:32.756832","MEAN_MOTION":1.0020057,"ECCENTRICITY":0.0003489,"INCLINATION":1.8949,"RA_OF_ASC_NODE":88.4861,"ARG_OF_PERICENTER":206.3907,"MEAN_ANOMALY":278.4568,"EPHEMERIS_TYPE":0,"CLASSIFICATION_TYPE":"U","NORAD_CAT_ID":41745,"ELEMENT_SET_NO":999,"REV_AT_EPOCH":1907,"BSTAR":0,"MEAN_MOTION_DOT":7.6e-7,"MEAN_MOTION_DDOT":0},{"OBJECT_NAME":"INTELSAT 36 (IS-36)","OBJECT_ID":"2016-053A","EPOCH":"2024-01-23T04:37:42.627936","MEAN_MOTION":1.00271464,"ECCENTRICITY":0.0001276,"INCLINATION":0.0097,"RA_OF_ASC_NODE":32.9383,"ARG_OF_PERICENTER":339.4906,"MEAN_ANOMALY":247.4961,"EPHEMERIS_TYPE":0,"CLASSIFICATION_TYPE":"U","NORAD_CAT_ID":41747,"ELEMENT_SET_NO":999,"REV_AT_EPOCH":2716,"BSTAR":0,"MEAN_MOTION_DOT":-2.3e-7,"MEAN_MOTION_DDOT":0}]
